XRISM                   
1 57800U 23137A   26078.80993593  .00004804  00000+0  27027-3 0  9991
2 57800  31.0011 218.1974 0007928 140.8254 219.2959 15.11607413139324
ACS3                    
1 59588U 24077B   26079.36866368  .00018094  00000+0  14376-1 0  9998
2 59588  97.2013  18.0810 0068797  51.6283 309.1035 13.90064209 95682
SZ-21 MODULE            
1 66515U 25246C   26079.19410922  .00026007  00000+0  21818-3 0  9991
2 66515  41.4734 138.6579 0000376 257.1443 102.9357 15.69318212 19723
